{
  "norad_id": 68361,
  "name": "RASSVET-3 2",
  "history": [
    {
      "epoch": "2026-03-31T15:47:00.561696Z",
      "apogee_km": 324.6774172660398,
      "perigee_km": 288.15169066486214,
      "latitude_deg": 3.061035010183698e-05,
      "longitude_deg": 33.92789053377145,
      "height_km": 296.57694327997945,
      "semi_major_axis_km": 6684.551553965451,
      "eccentricity": 0.0027321,
      "inclination_deg": 82.2971,
      "raan_deg": 99.7121,
      "arg_perigee_deg": 44.8164,
      "mean_anomaly_deg": 315.5307,
      "mean_motion_rev_day": 15.88526069
    }
  ]
}